[{"OBJECT_NAME":"OBJECT F","OBJECT_ID":"2023-072F","EPOCH":"2026-03-09T23:31:37.259904","MEAN_MOTION":15.29470958,"ECCENTRICITY":0.00062878,"INCLINATION":97.5173,"RA_OF_ASC_NODE":265.798,"ARG_OF_PERICENTER":19.0017,"MEAN_ANOMALY":341.1456,"EPHEMERIS_TYPE":0,"CLASSIFICATION_TYPE":"U","NORAD_CAT_ID":56748,"ELEMENT_SET_NO":999,"REV_AT_EPOCH":15460,"BSTAR":0.00043416252,"MEAN_MOTION_DOT":0.00012341,"MEAN_MOTION_DDOT":0},{"OBJECT_NAME":"STARLINK-35487","OBJECT_ID":"2025-245AE","EPOCH":"2026-03-09T20:39:03.240288","MEAN_MOTION":15.30257817,"ECCENTRICITY":0.00019659,"INCLINATION":53.1584,"RA_OF_ASC_NODE":283.0237,"ARG_OF_PERICENTER":155.3619,"MEAN_ANOMALY":204.7476,"EPHEMERIS_TYPE":0,"CLASSIFICATION_TYPE":"U","NORAD_CAT_ID":66262,"ELEMENT_SET_NO":999,"REV_AT_EPOCH":2123,"BSTAR":0.0014649593,"MEAN_MOTION_DOT":0.00043361,"MEAN_MOTION_DDOT":0}]
